CCSDS_OMM_VERS = 2.0
CREATION_DATE  = 
ORIGINATOR     = 

OBJECT_NAME    = STARLINK-36520
OBJECT_ID      = 2026-008X
CENTER_NAME    = EARTH
REF_FRAME      = TEME
TIME_SYSTEM    = UTC
MEAN_ELEMENT_THEORY = SGP/SGP4

EPOCH          = 2026-01-27T06:00:00.999648
MEAN_MOTION    = 15.86599668
ECCENTRICITY   = .00012229
INCLINATION    = 43.0016
RA_OF_ASC_NODE = 85.0517
ARG_OF_PERICENTER = 264.6201
MEAN_ANOMALY   = 265.1353

EPHEMERIS_TYPE = 0
CLASSIFICATION_TYPE = U
NORAD_CAT_ID   = 67466
ELEMENT_SET_NO = 999
REV_AT_EPOCH   = 313
BSTAR          = -.65563648E-2
MEAN_MOTION_DOT = -.1518711E-1
MEAN_MOTION_DDOT = 0

CCSDS_OMM_VERS = 2.0
CREATION_DATE  = 
ORIGINATOR     = 

OBJECT_NAME    = STARLINK-36425
OBJECT_ID      = 2026-008Y
CENTER_NAME    = EARTH
REF_FRAME      = TEME
TIME_SYSTEM    = UTC
MEAN_ELEMENT_THEORY = SGP/SGP4

EPOCH          = 2026-01-27T06:00:00.999648
MEAN_MOTION    = 15.86583734
ECCENTRICITY   = .00012783
INCLINATION    = 43.0016
RA_OF_ASC_NODE = 85.0445
ARG_OF_PERICENTER = 264.8633
MEAN_ANOMALY   = 267.7556

EPHEMERIS_TYPE = 0
CLASSIFICATION_TYPE = U
NORAD_CAT_ID   = 67467
ELEMENT_SET_NO = 999
REV_AT_EPOCH   = 313
BSTAR          = -.66300004E-2
MEAN_MOTION_DOT = -.1532705E-1
MEAN_MOTION_DDOT = 0

CCSDS_OMM_VERS = 2.0
CREATION_DATE  = 
ORIGINATOR     = 

OBJECT_NAME    = STARLINK-36414
OBJECT_ID      = 2026-008Z
CENTER_NAME    = EARTH
REF_FRAME      = TEME
TIME_SYSTEM    = UTC
MEAN_ELEMENT_THEORY = SGP/SGP4

EPOCH          = 2026-01-27T06:00:00.999648
MEAN_MOTION    = 15.89167125
ECCENTRICITY   = .00015021
INCLINATION    = 43.0016
RA_OF_ASC_NODE = 84.9053
ARG_OF_PERICENTER = 263.7273
MEAN_ANOMALY   = 323.8691

EPHEMERIS_TYPE = 0
CLASSIFICATION_TYPE = U
NORAD_CAT_ID   = 67468
ELEMENT_SET_NO = 999
REV_AT_EPOCH   = 313
BSTAR          = -.46032614E-2
MEAN_MOTION_DOT = -.1222231E-1
MEAN_MOTION_DDOT = 0

CCSDS_OMM_VERS = 2.0
CREATION_DATE  = 
ORIGINATOR     = 

OBJECT_NAME    = STARLINK-36441
OBJECT_ID      = 2026-008AA
CENTER_NAME    = EARTH
REF_FRAME      = TEME
TIME_SYSTEM    = UTC
MEAN_ELEMENT_THEORY = SGP/SGP4

EPOCH          = 2026-01-27T06:00:00.999648
MEAN_MOTION    = 15.89027810
ECCENTRICITY   = .0001398
INCLINATION    = 43.0013
RA_OF_ASC_NODE = 84.8591
ARG_OF_PERICENTER = 267.6613
MEAN_ANOMALY   = 337.9931

EPHEMERIS_TYPE = 0
CLASSIFICATION_TYPE = U
NORAD_CAT_ID   = 67469
ELEMENT_SET_NO = 999
REV_AT_EPOCH   = 313
BSTAR          = -.56135954E-2
MEAN_MOTION_DOT = -.1445947E-1
MEAN_MOTION_DDOT = 0

CCSDS_OMM_VERS = 2.0
CREATION_DATE  = 
ORIGINATOR     = 

OBJECT_NAME    = STARLINK-36454
OBJECT_ID      = 2026-008AB
CENTER_NAME    = EARTH
REF_FRAME      = TEME
TIME_SYSTEM    = UTC
MEAN_ELEMENT_THEORY = SGP/SGP4

EPOCH          = 2026-01-27T06:00:00.999648
MEAN_MOTION    = 15.88902788
ECCENTRICITY   = .00014108
INCLINATION    = 43.0011
RA_OF_ASC_NODE = 84.8398
ARG_OF_PERICENTER = 262.8649
MEAN_ANOMALY   = 350.3414

EPHEMERIS_TYPE = 0
CLASSIFICATION_TYPE = U
NORAD_CAT_ID   = 67470
ELEMENT_SET_NO = 999
REV_AT_EPOCH   = 313
BSTAR          = -.58417255E-2
MEAN_MOTION_DOT = -.1488308E-1
MEAN_MOTION_DDOT = 0

CCSDS_OMM_VERS = 2.0
CREATION_DATE  = 
ORIGINATOR     = 

OBJECT_NAME    = STARLINK-36334
OBJECT_ID      = 2026-008AC
CENTER_NAME    = EARTH
REF_FRAME      = TEME
TIME_SYSTEM    = UTC
MEAN_ELEMENT_THEORY = SGP/SGP4

EPOCH          = 2026-01-27T06:00:00.999648
MEAN_MOTION    = 15.89125283
ECCENTRICITY   = .00014967
INCLINATION    = 43.0013
RA_OF_ASC_NODE = 84.8832
ARG_OF_PERICENTER = 261.4245
MEAN_ANOMALY   = 334.7143

EPHEMERIS_TYPE = 0
CLASSIFICATION_TYPE = U
NORAD_CAT_ID   = 67471
ELEMENT_SET_NO = 999
REV_AT_EPOCH   = 313
BSTAR          = -.50395271E-2
MEAN_MOTION_DOT = -.1321764E-1
MEAN_MOTION_DDOT = 0

CCSDS_OMM_VERS = 2.0
CREATION_DATE  = 
ORIGINATOR     = 

OBJECT_NAME    = STARLINK-36269
OBJECT_ID      = 2026-008AD
CENTER_NAME    = EARTH
REF_FRAME      = TEME
TIME_SYSTEM    = UTC
MEAN_ELEMENT_THEORY = SGP/SGP4

EPOCH          = 2026-01-27T06:00:00.999648
MEAN_MOTION    = 15.88681890
ECCENTRICITY   = .00012692
INCLINATION    = 43.0008
RA_OF_ASC_NODE = 84.8136
ARG_OF_PERICENTER = 262.8266
MEAN_ANOMALY   = 0.5093

EPHEMERIS_TYPE = 0
CLASSIFICATION_TYPE = U
NORAD_CAT_ID   = 67472
ELEMENT_SET_NO = 999
REV_AT_EPOCH   = 315
BSTAR          = -.61545813E-2
MEAN_MOTION_DOT = -.1575132E-1
MEAN_MOTION_DDOT = 0

CCSDS_OMM_VERS = 2.0
CREATION_DATE  = 
ORIGINATOR     = 

OBJECT_NAME    = STARLINK-36408
OBJECT_ID      = 2026-008AE
CENTER_NAME    = EARTH
REF_FRAME      = TEME
TIME_SYSTEM    = UTC
MEAN_ELEMENT_THEORY = SGP/SGP4

EPOCH          = 2026-01-27T06:00:00.999648
MEAN_MOTION    = 15.88346934
ECCENTRICITY   = .00013247
INCLINATION    = 43.0010
RA_OF_ASC_NODE = 84.7763
ARG_OF_PERICENTER = 263.2136
MEAN_ANOMALY   = 14.9362

EPHEMERIS_TYPE = 0
CLASSIFICATION_TYPE = U
NORAD_CAT_ID   = 67473
ELEMENT_SET_NO = 999
REV_AT_EPOCH   = 315
BSTAR          = -.67045479E-2
MEAN_MOTION_DOT = -.167238E-1
MEAN_MOTION_DDOT = 0

CCSDS_OMM_VERS = 2.0
CREATION_DATE  = 
ORIGINATOR     = 

OBJECT_NAME    = ALSAT-3A
OBJECT_ID      = 2026-009A
CENTER_NAME    = EARTH
REF_FRAME      = TEME
TIME_SYSTEM    = UTC
MEAN_ELEMENT_THEORY = SGP/SGP4

EPOCH          = 2026-01-27T06:18:07.705152
MEAN_MOTION    = 15.03012932
ECCENTRICITY   = .00993811
INCLINATION    = 97.1800
RA_OF_ASC_NODE = 100.8467
ARG_OF_PERICENTER = 180.7317
MEAN_ANOMALY   = 179.3780

EPHEMERIS_TYPE = 0
CLASSIFICATION_TYPE = U
NORAD_CAT_ID   = 67474
ELEMENT_SET_NO = 999
REV_AT_EPOCH   = 182
BSTAR          = .42376172E-3
MEAN_MOTION_DOT = .6295E-4
MEAN_MOTION_DDOT = 0

CCSDS_OMM_VERS = 2.0
CREATION_DATE  = 
ORIGINATOR     = 

OBJECT_NAME    = CZ-2C R/B
OBJECT_ID      = 2026-009B
CENTER_NAME    = EARTH
REF_FRAME      = TEME
TIME_SYSTEM    = UTC
MEAN_ELEMENT_THEORY = SGP/SGP4

EPOCH          = 2026-01-27T07:09:21.029184
MEAN_MOTION    = 15.23225089
ECCENTRICITY   = .0011493
INCLINATION    = 97.4702
RA_OF_ASC_NODE = 102.0178
ARG_OF_PERICENTER = 214.3605
MEAN_ANOMALY   = 145.6890

EPHEMERIS_TYPE = 0
CLASSIFICATION_TYPE = U
NORAD_CAT_ID   = 67475
ELEMENT_SET_NO = 999
REV_AT_EPOCH   = 185
BSTAR          = .45452063E-3
MEAN_MOTION_DOT = .10713E-3
MEAN_MOTION_DDOT = 0

CCSDS_OMM_VERS = 2.0
CREATION_DATE  = 
ORIGINATOR     = 

OBJECT_NAME    = TIANQI-37
OBJECT_ID      = 2026-010A
CENTER_NAME    = EARTH
REF_FRAME      = TEME
TIME_SYSTEM    = UTC
MEAN_ELEMENT_THEORY = SGP/SGP4

EPOCH          = 2026-01-27T04:36:46.473984
MEAN_MOTION    = 14.14273838
ECCENTRICITY   = .00103728
INCLINATION    = 44.9836
RA_OF_ASC_NODE = 351.7261
ARG_OF_PERICENTER = 1.2919
MEAN_ANOMALY   = 358.7945

EPHEMERIS_TYPE = 0
CLASSIFICATION_TYPE = U
NORAD_CAT_ID   = 67476
ELEMENT_SET_NO = 999
REV_AT_EPOCH   = 161
BSTAR          = .22435233E-3
MEAN_MOTION_DOT = .298E-5
MEAN_MOTION_DDOT = 0

CCSDS_OMM_VERS = 2.0
CREATION_DATE  = 
ORIGINATOR     = 

OBJECT_NAME    = TIANQI-38
OBJECT_ID      = 2026-010B
CENTER_NAME    = EARTH
REF_FRAME      = TEME
TIME_SYSTEM    = UTC
MEAN_ELEMENT_THEORY = SGP/SGP4

EPOCH          = 2026-01-27T06:16:44.682528
MEAN_MOTION    = 14.14424570
ECCENTRICITY   = .00108672
INCLINATION    = 44.9800
RA_OF_ASC_NODE = 351.3940
ARG_OF_PERICENTER = 4.3338
MEAN_ANOMALY   = 355.7593

EPHEMERIS_TYPE = 0
CLASSIFICATION_TYPE = U
NORAD_CAT_ID   = 67477
ELEMENT_SET_NO = 999
REV_AT_EPOCH   = 162
BSTAR          = .22829766E-3
MEAN_MOTION_DOT = .307E-5
MEAN_MOTION_DDOT = 0

