STARLINK-36520          
1 67466U 26008X   26027.25001157 -.01518711  00000+0 -65564-2 0  9996
2 67466  43.0016  85.0517 0001222 264.6201 265.1353 15.86599668  3134
STARLINK-36425          
1 67467U 26008Y   26027.25001157 -.01532705  00000+0 -66300-2 0  9995
2 67467  43.0016  85.0445 0001278 264.8633 267.7556 15.86583734  3137
STARLINK-36414          
1 67468U 26008Z   26027.25001157 -.01222231  00000+0 -46033-2 0  9997
2 67468  43.0016  84.9053 0001502 263.7273 323.8691 15.89167125  3138
STARLINK-36441          
1 67469U 26008AA  26027.25001157 -.01445947  00000+0 -56136-2 0  9994
2 67469  43.0013  84.8591 0001398 267.6613 337.9931 15.89027810  3135
STARLINK-36454          
1 67470U 26008AB  26027.25001157 -.01488308  00000+0 -58417-2 0  9998
2 67470  43.0011  84.8398 0001410 262.8649 350.3414 15.88902788  3131
STARLINK-36334          
1 67471U 26008AC  26027.25001157 -.01321764  00000+0 -50395-2 0  9998
2 67471  43.0013  84.8832 0001496 261.4245 334.7143 15.89125283  3131
STARLINK-36269          
1 67472U 26008AD  26027.25001157 -.01575132  00000+0 -61546-2 0  9999
2 67472  43.0008  84.8136 0001269 262.8266   0.5093 15.88681890  3153
STARLINK-36408          
1 67473U 26008AE  26027.25001157 -.01672380  00000+0 -67045-2 0  9993
2 67473  43.0010  84.7763 0001324 263.2136  14.9362 15.88346934  3150
ALSAT-3A                
1 67474U 26009A   26027.26258918  .00006295  00000+0  42376-3 0  9999
2 67474  97.1800 100.8467 0099381 180.7317 179.3780 15.03012932  1820
CZ-2C R/B               
1 67475U 26009B   26027.29816006  .00010713  00000+0  45452-3 0  9999
2 67475  97.4702 102.0178 0011493 214.3605 145.6890 15.23225089  1852
TIANQI-37               
1 67476U 26010A   26027.19220456  .00000298  00000+0  22435-3 0  9992
2 67476  44.9836 351.7261 0010372   1.2919 358.7945 14.14273838  1616
TIANQI-38               
1 67477U 26010B   26027.26162827  .00000307  00000+0  22830-3 0  9998
2 67477  44.9800 351.3940 0010867   4.3338 355.7593 14.14424570  1624
